{
  "links" : {
    "next" : "https://api.nasa.gov/neo/rest/v1/feed?start_date=2016-01-23&end_date=2016-01-23&detailed=true&api_key=t0TVs3DtDT2H8Oy2Zy8m2eVrNsAVKAexjcZXUckd",
    "prev" : "https://api.nasa.gov/neo/rest/v1/feed?start_date=2016-01-21&end_date=2016-01-21&detailed=true&api_key=t0TVs3DtDT2H8Oy2Zy8m2eVrNsAVKAexjcZXUckd",
    "self" : "https://api.nasa.gov/neo/rest/v1/feed?start_date=2016-01-22&end_date=2016-01-22&detailed=true&api_key=t0TVs3DtDT2H8Oy2Zy8m2eVrNsAVKAexjcZXUckd"
  },
  "element_count" : 12,
  "near_earth_objects" : {
    "2016-01-22" : [ {
      "links" : {
        "self" : "https://api.nasa.gov/neo/rest/v1/neo/2357022?api_key=t0TVs3DtDT2H8Oy2Zy8m2eVrNsAVKAexjcZXUckd"
      },
      "neo_reference_id" : "2357022",
      "name" : "357022 (1999 YG3)",
      "nasa_jpl_url" : "http://ssd.jpl.nasa.gov/sbdb.cgi?sstr=2357022",
      "absolute_magnitude_h" : 19.1,
      "estimated_diameter" : {
        "kilometers" : {
          "estimated_diameter_min" : 0.4023045798,
          "estimated_diameter_max" : 0.8995803882
        },
        "meters" : {
          "estimated_diameter_min" : 402.3045798343,
          "estimated_diameter_max" : 899.5803881691
        },
        "miles" : {
          "estimated_diameter_min" : 0.2499803991,
          "estimated_diameter_max" : 0.5589731654
        },
        "feet" : {
          "estimated_diameter_min" : 1319.8969577037,
          "estimated_diameter_max" : 2951.3793207207
        }
      },
      "is_potentially_hazardous_asteroid" : true,
      "close_approach_data" : [ {
        "close_approach_date" : "2016-01-22",
        "epoch_date_close_approach" : 1453449600000,
        "relative_velocity" : {
          "kilometers_per_second" : "18.2130123232",
          "kilometers_per_hour" : "65566.8443634642",
          "miles_per_hour" : "40740.6872657314"
        },
        "miss_distance" : {
          "astronomical" : "0.2247187566",
          "lunar" : "87.4155960083",
          "kilometers" : "33617448",
          "miles" : "20888912"
        },
        "orbiting_body" : "Earth"
      } ],
      "orbital_data" : {
        "orbit_id" : "71",
        "orbit_determination_date" : "2017-04-06 09:22:57",
        "orbit_uncertainty" : "0",
        "minimum_orbit_intersection" : ".0430734",
        "jupiter_tisserand_invariant" : "4.823",
        "epoch_osculation" : "2458000.5",
        "eccentricity" : ".3295621524774158",
        "semi_major_axis" : "1.284789949497999",
        "inclination" : "34.51688657567774",
        "ascending_node_longitude" : "293.2855315685359",
        "orbital_period" : "531.9203709006454",
        "perihelion_distance" : ".8613718082600882",
        "perihelion_argument" : "250.2315182001751",
        "aphelion_distance" : "1.70820809073591",
        "perihelion_time" : "2458002.370484893225",
        "mean_anomaly" : "358.7340688599297",
        "mean_motion" : ".6767930308637164",
        "equinox" : "J2000"
      }
    }, {
      "links" : {
        "self" : "https://api.nasa.gov/neo/rest/v1/neo/3555769?api_key=t0TVs3DtDT2H8Oy2Zy8m2eVrNsAVKAexjcZXUckd"
      },
      "neo_reference_id" : "3555769",
      "name" : "(2011 BG24)",
      "nasa_jpl_url" : "http://ssd.jpl.nasa.gov/sbdb.cgi?sstr=3555769",
      "absolute_magnitude_h" : 26.6,
      "estimated_diameter" : {
        "kilometers" : {
          "estimated_diameter_min" : 0.0127219879,
          "estimated_diameter_max" : 0.0284472297
        },
        "meters" : {
          "estimated_diameter_min" : 12.7219878539,
          "estimated_diameter_max" : 28.4472296503
        },
        "miles" : {
          "estimated_diameter_min" : 0.0079050743,
          "estimated_diameter_max" : 0.0176762835
        },
        "feet" : {
          "estimated_diameter_min" : 41.7388066307,
          "estimated_diameter_max" : 93.330808926
        }
      },
      "is_potentially_hazardous_asteroid" : false,
      "close_approach_data" : [ {
        "close_approach_date" : "2016-01-22",
        "epoch_date_close_approach" : 1453449600000,
        "relative_velocity" : {
          "kilometers_per_second" : "8.1987836687",
          "kilometers_per_hour" : "29515.6212073986",
          "miles_per_hour" : "18339.8591885639"
        },
        "miss_distance" : {
          "astronomical" : "0.0740092989",
          "lunar" : "28.7896175385",
          "kilometers" : "11071634",
          "miles" : "6879594"
        },
        "orbiting_body" : "Earth"
      } ],
      "orbital_data" : {
        "orbit_id" : "6",
        "orbit_determination_date" : "2017-04-06 08:54:48",
        "orbit_uncertainty" : "7",
        "minimum_orbit_intersection" : ".0042684",
        "jupiter_tisserand_invariant" : "4.694",
        "epoch_osculation" : "2458000.5",
        "eccentricity" : ".3192067811458667",
        "semi_major_axis" : "1.402233016418051",
        "inclination" : "1.509509343562284",
        "ascending_node_longitude" : "305.52298147312",
        "orbital_period" : "606.4970737408619",
        "perihelion_distance" : ".9546307288307859",
        "perihelion_argument" : "218.5803947463555",
        "aphelion_distance" : "1.849835304005317",
        "perihelion_time" : "2458049.316532537528",
        "mean_anomaly" : "331.0238474769315",
        "mean_motion" : ".5935725258813321",
        "equinox" : "J2000"
      }
    }, {
      "links" : {
        "self" : "https://api.nasa.gov/neo/rest/v1/neo/3741971?api_key=t0TVs3DtDT2H8Oy2Zy8m2eVrNsAVKAexjcZXUckd"
      },
      "neo_reference_id" : "3741971",
      "name" : "(2016 CA30)",
      "nasa_jpl_url" : "http://ssd.jpl.nasa.gov/sbdb.cgi?sstr=3741971",
      "absolute_magnitude_h" : 27.5,
      "estimated_diameter" : {
        "kilometers" : {
          "estimated_diameter_min" : 0.008405334,
          "estimated_diameter_max" : 0.0187948982
        },
        "meters" : {
          "estimated_diameter_min" : 8.4053340207,
          "estimated_diameter_max" : 18.7948982439
        },
        "miles" : {
          "estimated_diameter_min" : 0.0052228308,
          "estimated_diameter_max" : 0.0116786047
        },
        "feet" : {
          "estimated_diameter_min" : 27.5765560686,
          "estimated_diameter_max" : 61.6630539546
        }
      },
      "is_potentially_hazardous_asteroid" : false,
      "close_approach_data" : [ {
        "close_approach_date" : "2016-01-22",
        "epoch_date_close_approach" : 1453449600000,
        "relative_velocity" : {
          "kilometers_per_second" : "6.5258101082",
          "kilometers_per_hour" : "23492.9163896732",
          "miles_per_hour" : "14597.5846311278"
        },
        "miss_distance" : {
          "astronomical" : "0.0173122077",
          "lunar" : "6.7344489098",
          "kilometers" : "2589869.5",
          "miles" : "1609270.25"
        },
        "orbiting_body" : "Earth"
      } ],
      "orbital_data" : {
        "orbit_id" : "5",
        "orbit_determination_date" : "2017-04-06 08:28:41",
        "orbit_uncertainty" : "7",
        "minimum_orbit_intersection" : ".0177474",
        "jupiter_tisserand_invariant" : "5.315",
        "epoch_osculation" : "2458000.5",
        "eccentricity" : ".2519976123887144",
        "semi_major_axis" : "1.184510104198228",
        "inclination" : "3.43502785693691",
        "ascending_node_longitude" : "137.9349308719847",
        "orbital_period" : "470.8760281200485",
        "perihelion_distance" : ".8860163860899668",
        "perihelion_argument" : "282.4758918779345",
        "aphelion_distance" : "1.483003822306488",
        "perihelion_time" : "2457830.845062727803",
        "mean_anomaly" : "129.7067036133334",
        "mean_motion" : ".7645324427265576",
        "equinox" : "J2000"
      }
    } ]
  }
}